[{"OBJECT_NAME":"STARLINK-1471","OBJECT_ID":"2020-038F","EPOCH":"2023-10-22T09:16:18.234624","MEAN_MOTION":15.06428911,"ECCENTRICITY":0.0001509,"INCLINATION":53.0535,"RA_OF_ASC_NODE":179.0747,"ARG_OF_PERICENTER":74.9497,"MEAN_ANOMALY":285.1659,"EPHEMERIS_TYPE":0,"CLASSIFICATION_TYPE":"U","NORAD_CAT_ID":45735,"ELEMENT_SET_NO":999,"REV_AT_EPOCH":18516,"BSTAR":0.0012734,"MEAN_MOTION_DOT":0.00018751,"MEAN_MOTION_DDOT":0},{"OBJECT_NAME":"STARLINK-1472","OBJECT_ID":"2020-038G","EPOCH":"2023-10-22T14:00:01.000224","MEAN_MOTION":15.7773729,"ECCENTRICITY":0.0005455,"INCLINATION":53.0464,"RA_OF_ASC_NODE":356.4692,"ARG_OF_PERICENTER":20.6804,"MEAN_ANOMALY":205.5019,"EPHEMERIS_TYPE":0,"CLASSIFICATION_TYPE":"U","NORAD_CAT_ID":45736,"ELEMENT_SET_NO":999,"REV_AT_EPOCH":601,"BSTAR":0.0010983,"MEAN_MOTION_DOT":0.00191767,"MEAN_MOTION_DDOT":0},{"OBJECT_NAME":"STARLINK-1474","OBJECT_ID":"2020-038J","EPOCH":"2023-10-22T09:00:23.269248","MEAN_MOTION":15.06400954,"ECCENTRICITY":0.0002003,"INCLINATION":53.0541,"RA_OF_ASC_NODE":179.1224,"ARG_OF_PERICENTER":86.178,"MEAN_ANOMALY":273.9438,"EPHEMERIS_TYPE":0,"CLASSIFICATION_TYPE":"U","NORAD_CAT_ID":45738,"ELEMENT_SET_NO":999,"REV_AT_EPOCH":18516,"BSTAR":-0.00030712,"MEAN_MOTION_DOT":-4.853e-5,"MEAN_MOTION_DDOT":0},{"OBJECT_NAME":"STARLINK-1475","OBJECT_ID":"2020-038K","EPOCH":"2023-10-21T23:47:00.631392","MEAN_MOTION":15.06408814,"ECCENTRICITY":0.000134,"INCLINATION":53.054,"RA_OF_ASC_NODE":140.8377,"ARG_OF_PERICENTER":89.9337,"MEAN_ANOMALY":270.1805,"EPHEMERIS_TYPE":0,"CLASSIFICATION_TYPE":"U","NORAD_CAT_ID":45739,"ELEMENT_SET_NO":999,"REV_AT_EPOCH":18566,"BSTAR":0.00098021,"MEAN_MOTION_DOT":0.00014352,"MEAN_MOTION_DDOT":0},{"OBJECT_NAME":"STARLINK-1479","OBJECT_ID":"2020-038L","EPOCH":"2023-10-22T09:10:59.966400","MEAN_MOTION":15.06393004,"ECCENTRICITY":0.0001128,"INCLINATION":53.0532,"RA_OF_ASC_NODE":179.0894,"ARG_OF_PERICENTER":81.4806,"MEAN_ANOMALY":278.6311,"EPHEMERIS_TYPE":0,"CLASSIFICATION_TYPE":"U","NORAD_CAT_ID":45740,"ELEMENT_SET_NO":999,"REV_AT_EPOCH":18516,"BSTAR":0.00034223,"MEAN_MOTION_DOT":4.819e-5,"MEAN_MOTION_DDOT":0},{"OBJECT_NAME":"STARLINK-1480","OBJECT_ID":"2020-038M","EPOCH":"2023-10-22T10:04:04.333440","MEAN_MOTION":15.0643461,"ECCENTRICITY":0.0001804,"INCLINATION":53.0533,"RA_OF_ASC_NODE":178.9243,"ARG_OF_PERICENTER":78.3787,"MEAN_ANOMALY":281.7404,"EPHEMERIS_TYPE":0,"CLASSIFICATION_TYPE":"U","NORAD_CAT_ID":45741,"ELEMENT_SET_NO":999,"REV_AT_EPOCH":18518,"BSTAR":0.0013912,"MEAN_MOTION_DOT":0.00020521,"MEAN_MOTION_DDOT":0},{"OBJECT_NAME":"STARLINK-1481","OBJECT_ID":"2020-038N","EPOCH":"2023-10-21T22:44:40.791840","MEAN_MOTION":15.06423948,"ECCENTRICITY":0.0001387,"INCLINATION":53.053,"RA_OF_ASC_NODE":181.0436,"ARG_OF_PERICENTER":85.4854,"MEAN_ANOMALY":274.6293,"EPHEMERIS_TYPE":0,"CLASSIFICATION_TYPE":"U","NORAD_CAT_ID":45742,"ELEMENT_SET_NO":999,"REV_AT_EPOCH":18621,"BSTAR":0.0020998,"MEAN_MOTION_DOT":0.00031154,"MEAN_MOTION_DDOT":0},{"OBJECT_NAME":"STARLINK-1483","OBJECT_ID":"2020-038P","EPOCH":"2023-10-21T23:16:32.042784","MEAN_MOTION":15.06414146,"ECCENTRICITY":0.0001332,"INCLINATION":53.0537,"RA_OF_ASC_NODE":180.9252,"ARG_OF_PERICENTER":90.3819,"MEAN_ANOMALY":269.7323,"EPHEMERIS_TYPE":0,"CLASSIFICATION_TYPE":"U","NORAD_CAT_ID":45743,"ELEMENT_SET_NO":999,"REV_AT_EPOCH":18510,"BSTAR":0.0017462,"MEAN_MOTION_DOT":0.00025834,"MEAN_MOTION_DDOT":0},{"OBJECT_NAME":"STARLINK-1500","OBJECT_ID":"2020-038Q","EPOCH":"2023-10-22T09:37:32.944800","MEAN_MOTION":15.06386507,"ECCENTRICITY":0.0001513,"INCLINATION":53.053,"RA_OF_ASC_NODE":179.0067,"ARG_OF_PERICENTER":90.6992,"MEAN_ANOMALY":269.4171,"EPHEMERIS_TYPE":0,"CLASSIFICATION_TYPE":"U","NORAD_CAT_ID":45744,"ELEMENT_SET_NO":999,"REV_AT_EPOCH":18517,"BSTAR":0.00020745,"MEAN_MOTION_DOT":2.809e-5,"MEAN_MOTION_DDOT":0},{"OBJECT_NAME":"STARLINK-1503","OBJECT_ID":"2020-038R","EPOCH":"2023-10-22T09:21:36.644544","MEAN_MOTION":15.06396013,"ECCENTRICITY":0.0001675,"INCLINATION":53.0528,"RA_OF_ASC_NODE":179.0554,"ARG_OF_PERICENTER":88.2172,"MEAN_ANOMALY":271.9009,"EPHEMERIS_TYPE":0,"CLASSIFICATION_TYPE":"U","NORAD_CAT_ID":45745,"ELEMENT_SET_NO":999,"REV_AT_EPOCH":18516,"BSTAR":0.00023747,"MEAN_MOTION_DOT":3.257e-5,"MEAN_MOTION_DDOT":0},{"OBJECT_NAME":"STARLINK-1504","OBJECT_ID":"2020-038S","EPOCH":"2023-10-22T09:42:51.439392","MEAN_MOTION":15.063841,"ECCENTRICITY":0.0001826,"INCLINATION":53.0532,"RA_OF_ASC_NODE":178.9897,"ARG_OF_PERICENTER":86.3822,"MEAN_ANOMALY":273.7375,"EPHEMERIS_TYPE":0,"CLASSIFICATION_TYPE":"U","NORAD_CAT_ID":45746,"ELEMENT_SET_NO":999,"REV_AT_EPOCH":18516,"BSTAR":9.3432e-5,"MEAN_MOTION_DOT":1.11e-5,"MEAN_MOTION_DDOT":0},{"OBJECT_NAME":"STARLINK-1506","OBJECT_ID":"2020-038T","EPOCH":"2023-10-22T09:48:08.681184","MEAN_MOTION":15.06390611,"ECCENTRICITY":0.0001603,"INCLINATION":53.0531,"RA_OF_ASC_NODE":178.9751,"ARG_OF_PERICENTER":92.3811,"MEAN_ANOMALY":267.7361,"EPHEMERIS_TYPE":0,"CLASSIFICATION_TYPE":"U","NORAD_CAT_ID":45747,"ELEMENT_SET_NO":999,"REV_AT_EPOCH":18517,"BSTAR":-0.00050956,"MEAN_MOTION_DOT":-7.861e-5,"MEAN_MOTION_DDOT":0},{"OBJECT_NAME":"STARLINK-1507","OBJECT_ID":"2020-038U","EPOCH":"2023-10-22T09:32:13.689888","MEAN_MOTION":15.06399335,"ECCENTRICITY":0.0001169,"INCLINATION":53.0536,"RA_OF_ASC_NODE":179.0335,"ARG_OF_PERICENTER":93.9322,"MEAN_ANOMALY":266.18,"EPHEMERIS_TYPE":0,"CLASSIFICATION_TYPE":"U","NORAD_CAT_ID":45748,"ELEMENT_SET_NO":999,"REV_AT_EPOCH":18516,"BSTAR":0.00044747,"MEAN_MOTION_DOT":6.39e-5,"MEAN_MOTION_DDOT":0},{"OBJECT_NAME":"STARLINK-1391","OBJECT_ID":"2020-038W","EPOCH":"2023-10-22T08:36:29.974464","MEAN_MOTION":15.06426541,"ECCENTRICITY":9.95e-5,"INCLINATION":53.0528,"RA_OF_ASC_NODE":159.1944,"ARG_OF_PERICENTER":111.2419,"MEAN_ANOMALY":248.8676,"EPHEMERIS_TYPE":0,"CLASSIFICATION_TYPE":"U","NORAD_CAT_ID":45750,"ELEMENT_SET_NO":999,"REV_AT_EPOCH":18545,"BSTAR":0.0010588,"MEAN_MOTION_DOT":0.00015536,"MEAN_MOTION_DDOT":0},{"OBJECT_NAME":"STARLINK-1464","OBJECT_ID":"2020-038X","EPOCH":"2023-10-22T08:31:11.545536","MEAN_MOTION":15.06390502,"ECCENTRICITY":0.000136,"INCLINATION":53.0528,"RA_OF_ASC_NODE":159.2154,"ARG_OF_PERICENTER":90.6022,"MEAN_ANOMALY":269.5123,"EPHEMERIS_TYPE":0,"CLASSIFICATION_TYPE":"U","NORAD_CAT_ID":45751,"ELEMENT_SET_NO":999,"REV_AT_EPOCH":18545,"BSTAR":1.5889e-5,"MEAN_MOTION_DOT":-4.5e-7,"MEAN_MOTION_DDOT":0},{"OBJECT_NAME":"STARLINK-1476","OBJECT_ID":"2020-038Z","EPOCH":"2023-10-22T08:47:07.234944","MEAN_MOTION":15.06406465,"ECCENTRICITY":0.0001403,"INCLINATION":53.0522,"RA_OF_ASC_NODE":159.1654,"ARG_OF_PERICENTER":94.409,"MEAN_ANOMALY":265.7059,"EPHEMERIS_TYPE":0,"CLASSIFICATION_TYPE":"U","NORAD_CAT_ID":45753,"ELEMENT_SET_NO":999,"REV_AT_EPOCH":18545,"BSTAR":0.00058673,"MEAN_MOTION_DOT":8.47e-5,"MEAN_MOTION_DDOT":0},{"OBJECT_NAME":"STARLINK-1477","OBJECT_ID":"2020-038AA","EPOCH":"2023-10-21T21:43:39.078624","MEAN_MOTION":15.06408185,"ECCENTRICITY":0.0001258,"INCLINATION":53.0527,"RA_OF_ASC_NODE":161.235,"ARG_OF_PERICENTER":113.2685,"MEAN_ANOMALY":246.8436,"EPHEMERIS_TYPE":0,"CLASSIFICATION_TYPE":"U","NORAD_CAT_ID":45754,"ELEMENT_SET_NO":999,"REV_AT_EPOCH":18538,"BSTAR":0.0014314,"MEAN_MOTION_DOT":0.00021108,"MEAN_MOTION_DDOT":0}]
