STARLINK-1471           
1 45735U 20038F   23295.38632216  .00018751  00000+0  12734-2 0  9999
2 45735  53.0535 179.0747 0001509  74.9497 285.1659 15.06428911185161
STARLINK-1472           
1 45736U 20038G   23295.58334491  .00191767  00000+0  10983-2 0  9999
2 45736  53.0464 356.4692 0005455  20.6804 205.5019 15.77737290  6010
STARLINK-1474           
1 45738U 20038J   23295.37526932 -.00004853  00000+0 -30712-3 0  9995
2 45738  53.0541 179.1224 0002003  86.1780 273.9438 15.06400954185169
STARLINK-1475           
1 45739U 20038K   23294.99097953  .00014352  00000+0  98021-3 0  9999
2 45739  53.0540 140.8377 0001340  89.9337 270.1805 15.06408814185660
STARLINK-1479           
1 45740U 20038L   23295.38263850  .00004819  00000+0  34223-3 0  9997
2 45740  53.0532 179.0894 0001128  81.4806 278.6311 15.06393004185167
STARLINK-1480           
1 45741U 20038M   23295.41949460  .00020521  00000+0  13912-2 0  9999
2 45741  53.0533 178.9243 0001804  78.3787 281.7404 15.06434610185188
STARLINK-1481           
1 45742U 20038N   23294.94769435  .00031154  00000+0  20998-2 0  9995
2 45742  53.0530 181.0436 0001387  85.4854 274.6293 15.06423948186219
STARLINK-1483           
1 45743U 20038P   23294.96981531  .00025834  00000+0  17462-2 0  9991
2 45743  53.0537 180.9252 0001332  90.3819 269.7323 15.06414146185103
STARLINK-1500           
1 45744U 20038Q   23295.40107575  .00002809  00000+0  20745-3 0  9996
2 45744  53.0530 179.0067 0001513  90.6992 269.4171 15.06386507185170
STARLINK-1503           
1 45745U 20038R   23295.39000746  .00003257  00000+0  23747-3 0  9990
2 45745  53.0528 179.0554 0001675  88.2172 271.9009 15.06396013185161
STARLINK-1504           
1 45746U 20038S   23295.40476203  .00001110  00000+0  93432-4 0  9993
2 45746  53.0532 178.9897 0001826  86.3822 273.7375 15.06384100185164
STARLINK-1506           
1 45747U 20038T   23295.40843381 -.00007861  00000+0 -50956-3 0  9993
2 45747  53.0531 178.9751 0001603  92.3811 267.7361 15.06390611185174
STARLINK-1507           
1 45748U 20038U   23295.39738067  .00006390  00000+0  44747-3 0  9991
2 45748  53.0536 179.0335 0001169  93.9322 266.1800 15.06399335185163
STARLINK-1391           
1 45750U 20038W   23295.35868026  .00015536  00000+0  10588-2 0  9996
2 45750  53.0528 159.1944 0000995 111.2419 248.8676 15.06426541185459
STARLINK-1464           
1 45751U 20038X   23295.35499474 -.00000045  00000+0  15889-4 0  9995
2 45751  53.0528 159.2154 0001360  90.6022 269.5123 15.06390502185455
STARLINK-1476           
1 45753U 20038Z   23295.36605596  .00008470  00000+0  58673-3 0  9998
2 45753  53.0522 159.1654 0001403  94.4090 265.7059 15.06406465185452
STARLINK-1477           
1 45754U 20038AA  23294.90531341  .00021108  00000+0  14314-2 0  9990
2 45754  53.0527 161.2350 0001258 113.2685 246.8436 15.06408185185385
